{
  "type": "FeatureCollection",
  "features": [
    {
      "type": "Feature",
      "properties": {
        "norad_id": 30066,
        "name": "FENGYUN 1C DEB",
        "group": "fengyun-1c-debris",
        "lat": -69.766763629368,
        "lon": 2.610174567555631,
        "alt_km": 762.3546609553377,
        "timestamp": "2025-12-13T20:38:51.278459+00:00",
        "meta_object_name": "FENGYUN 1C DEB",
        "meta_object_id": "1999-025PT",
        "meta_epoch": "2025-12-13T05:48:28.229760",
        "meta_mean_motion": 14.19110176,
        "meta_eccentricity": 0.01166948,
        "meta_inclination": 98.6343,
        "meta_ra_of_asc_node": 337.6623,
        "meta_arg_of_pericenter": 260.4318,
        "meta_mean_anomaly": 110.2156,
        "meta_ephemeris_type": 0,
        "meta_classification_type": "U",
        "meta_norad_cat_id": 30066,
        "meta_element_set_no": 999,
        "meta_rev_at_epoch": 97844,
        "meta_bstar": 0.00026106328,
        "meta_mean_motion_dot": 5.4e-06,
        "meta_mean_motion_ddot": 0,
        "tle_line1": "1 30066U 99025PT  25347.24199340  .00000540  00000+0  26106-3 0  9999",
        "tle_line2": "2 30066  98.6343 337.6623 0116694 260.4318 110.2156 14.19110176978440"
      },
      "geometry": {
        "type": "Point",
        "coordinates": [
          2.610174567555631,
          -69.766763629368
        ]
      }
    },
    {
      "type": "Feature",
      "properties": {
        "norad_id": 30067,
        "name": "FENGYUN 1C DEB",
        "group": "fengyun-1c-debris",
        "lat": -51.12971338539905,
        "lon": -114.98765395883792,
        "alt_km": 708.9761013831094,
        "timestamp": "2025-12-13T20:38:51.278470+00:00",
        "meta_object_name": "FENGYUN 1C DEB",
        "meta_object_id": "1999-025PU",
        "meta_epoch": "2025-12-13T06:26:20.021856",
        "meta_mean_motion": 14.4369001,
        "meta_eccentricity": 0.01518468,
        "meta_inclination": 98.7655,
        "meta_ra_of_asc_node": 233.3671,
        "meta_arg_of_pericenter": 16.5283,
        "meta_mean_anomaly": 97.99,
        "meta_ephemeris_type": 0,
        "meta_classification_type": "U",
        "meta_norad_cat_id": 30067,
        "meta_element_set_no": 999,
        "meta_rev_at_epoch": 99206,
        "meta_bstar": 0.00068563766,
        "meta_mean_motion_dot": 2.626e-05,
        "meta_mean_motion_ddot": 0,
        "tle_line1": "1 30067U 99025PU  25347.26828729  .00002626  00000+0  68564-3 0  9993",
        "tle_line2": "2 30067  98.7655 233.3671 0151846  16.5283  97.9900 14.43690010992061"
      },
      "geometry": {
        "type": "Point",
        "coordinates": [
          -114.98765395883792,
          -51.12971338539905
        ]
      }
    },
    {
      "type": "Feature",
      "properties": {
        "norad_id": 30068,
        "name": "FENGYUN 1C DEB",
        "group": "fengyun-1c-debris",
        "lat": 62.675108446652914,
        "lon": -41.673221686516555,
        "alt_km": 816.0899168686956,
        "timestamp": "2025-12-13T20:38:51.278480+00:00",
        "meta_object_name": "FENGYUN 1C DEB",
        "meta_object_id": "1999-025PV",
        "meta_epoch": "2025-12-13T05:02:52.416960",
        "meta_mean_motion": 14.12048435,
        "meta_eccentricity": 0.01899643,
        "meta_inclination": 98.7366,
        "meta_ra_of_asc_node": 335.0073,
        "meta_arg_of_pericenter": 347.5089,
        "meta_mean_anomaly": 12.141,
        "meta_ephemeris_type": 0,
        "meta_classification_type": "U",
        "meta_norad_cat_id": 30068,
        "meta_element_set_no": 999,
        "meta_rev_at_epoch": 97350,
        "meta_bstar": 0.00032525695,
        "meta_mean_motion_dot": 6.63e-06,
        "meta_mean_motion_ddot": 0,
        "tle_line1": "1 30068U 99025PV  25347.21032890  .00000663  00000+0  32526-3 0  9993",
        "tle_line2": "2 30068  98.7366 335.0073 0189964 347.5089  12.1410 14.12048435973507"
      },
      "geometry": {
        "type": "Point",
        "coordinates": [
          -41.673221686516555,
          62.675108446652914
        ]
      }
    },
    {
      "type": "Feature",
      "properties": {
        "norad_id": 30069,
        "name": "FENGYUN 1C DEB",
        "group": "fengyun-1c-debris",
        "lat": 61.53449251543524,
        "lon": 166.27883832125968,
        "alt_km": 855.4957513188392,
        "timestamp": "2025-12-13T20:38:51.278490+00:00",
        "meta_object_name": "FENGYUN 1C DEB",
        "meta_object_id": "1999-025PW",
        "meta_epoch": "2025-12-13T04:46:12.751680",
        "meta_mean_motion": 14.05223702,
        "meta_eccentricity": 0.0049885,
        "meta_inclination": 98.801,
        "meta_ra_of_asc_node": 329.0336,
        "meta_arg_of_pericenter": 51.8837,
        "meta_mean_anomaly": 319.8857,
        "meta_ephemeris_type": 0,
        "meta_classification_type": "U",
        "meta_norad_cat_id": 30069,
        "meta_element_set_no": 999,
        "meta_rev_at_epoch": 96853,
        "meta_bstar": 0.00029882743,
        "meta_mean_motion_dot": 4.46e-06,
        "meta_mean_motion_ddot": 0,
        "tle_line1": "1 30069U 99025PW  25347.19875870  .00000446  00000+0  29883-3 0  9995",
        "tle_line2": "2 30069  98.8010 329.0336 0049885  51.8837 319.8857 14.05223702968536"
      },
      "geometry": {
        "type": "Point",
        "coordinates": [
          166.27883832125968,
          61.53449251543524
        ]
      }
    },
    {
      "type": "Feature",
      "properties": {
        "norad_id": 30070,
        "name": "FENGYUN 1C DEB",
        "group": "fengyun-1c-debris",
        "lat": -74.50561979523935,
        "lon": 79.12226306766011,
        "alt_km": 664.6175834378237,
        "timestamp": "2025-12-13T20:38:51.278501+00:00",
        "meta_object_name": "FENGYUN 1C DEB",
        "meta_object_id": "1999-025PX",
        "meta_epoch": "2025-12-13T02:32:05.330400",
        "meta_mean_motion": 14.09915462,
        "meta_eccentricity": 0.0328103,
        "meta_inclination": 98.2865,
        "meta_ra_of_asc_node": 46.7098,
        "meta_arg_of_pericenter": 317.9161,
        "meta_mean_anomaly": 98.7674,
        "meta_ephemeris_type": 0,
        "meta_classification_type": "U",
        "meta_norad_cat_id": 30070,
        "meta_element_set_no": 999,
        "meta_rev_at_epoch": 95884,
        "meta_bstar": 0.0023117767,
        "meta_mean_motion_dot": 6.685e-05,
        "meta_mean_motion_ddot": 0,
        "tle_line1": "1 30070U 99025PX  25347.10561725  .00006685  00000+0  23118-2 0  9994",
        "tle_line2": "2 30070  98.2865  46.7098 0328103 317.9161  98.7674 14.09915462958845"
      },
      "geometry": {
        "type": "Point",
        "coordinates": [
          79.12226306766011,
          -74.50561979523935
        ]
      }
    },
    {
      "type": "Feature",
      "properties": {
        "norad_id": 30071,
        "name": "FENGYUN 1C DEB",
        "group": "fengyun-1c-debris",
        "lat": -43.284438888131746,
        "lon": 95.40774230730742,
        "alt_km": 749.2861904702786,
        "timestamp": "2025-12-13T20:38:51.278511+00:00",
        "meta_object_name": "FENGYUN 1C DEB",
        "meta_object_id": "1999-025PY",
        "meta_epoch": "2025-12-13T06:12:58.686048",
        "meta_mean_motion": 14.52166174,
        "meta_eccentricity": 0.00392427,
        "meta_inclination": 98.6579,
        "meta_ra_of_asc_node": 86.5371,
        "meta_arg_of_pericenter": 108.2033,
        "meta_mean_anomaly": 306.5155,
        "meta_ephemeris_type": 0,
        "meta_classification_type": "U",
        "meta_norad_cat_id": 30071,
        "meta_element_set_no": 999,
        "meta_rev_at_epoch": 98234,
        "meta_bstar": 0.0043244835,
        "meta_mean_motion_dot": 0.00017703,
        "meta_mean_motion_ddot": 0,
        "tle_line1": "1 30071U 99025PY  25347.25901257  .00017703  00000+0  43245-2 0  9995",
        "tle_line2": "2 30071  98.6579  86.5371 0039242 108.2033 306.5155 14.52166174982342"
      },
      "geometry": {
        "type": "Point",
        "coordinates": [
          95.40774230730742,
          -43.284438888131746
        ]
      }
    },
    {
      "type": "Feature",
      "properties": {
        "norad_id": 30072,
        "name": "FENGYUN 1C DEB",
        "group": "fengyun-1c-debris",
        "lat": -40.242361085252625,
        "lon": -51.585050731533265,
        "alt_km": 743.7835836109107,
        "timestamp": "2025-12-13T20:38:51.278521+00:00",
        "meta_object_name": "FENGYUN 1C DEB",
        "meta_object_id": "1999-025PZ",
        "meta_epoch": "2025-12-13T07:55:38.450496",
        "meta_mean_motion": 14.37803066,
        "meta_eccentricity": 0.00596645,
        "meta_inclination": 99.0758,
        "meta_ra_of_asc_node": 135.6305,
        "meta_arg_of_pericenter": 270.7942,
        "meta_mean_anomaly": 88.6407,
        "meta_ephemeris_type": 0,
        "meta_classification_type": "U",
        "meta_norad_cat_id": 30072,
        "meta_element_set_no": 999,
        "meta_rev_at_epoch": 97179,
        "meta_bstar": 0.0054776194,
        "meta_mean_motion_dot": 0.00016838,
        "meta_mean_motion_ddot": 0,
        "tle_line1": "1 30072U 99025PZ  25347.33030614  .00016838  00000+0  54776-2 0  9994",
        "tle_line2": "2 30072  99.0758 135.6305 0059664 270.7942  88.6407 14.37803066971790"
      },
      "geometry": {
        "type": "Point",
        "coordinates": [
          -51.585050731533265,
          -40.242361085252625
        ]
      }
    }
  ]
}